[{"OBJECT_NAME":"INTELSAT 33E DEB","OBJECT_ID":"2016-053V","EPOCH":"2026-04-04T17:02:00.341088","MEAN_MOTION":1.00411302,"ECCENTRICITY":0.0024315,"INCLINATION":1.4355,"RA_OF_ASC_NODE":89.2838,"ARG_OF_PERICENTER":256.5534,"MEAN_ANOMALY":103.9583,"EPHEMERIS_TYPE":0,"CLASSIFICATION_TYPE":"U","NORAD_CAT_ID":62003,"ELEMENT_SET_NO":999,"REV_AT_EPOCH":534,"BSTAR":0,"MEAN_MOTION_DOT":3.2e-7,"MEAN_MOTION_DDOT":0},{"OBJECT_NAME":"OPTUS-X (ADS-01)","OBJECT_ID":"2024-212A","EPOCH":"2026-04-05T18:37:24.888864","MEAN_MOTION":1.00269391,"ECCENTRICITY":0.0001461,"INCLINATION":0.0168,"RA_OF_ASC_NODE":223.1252,"ARG_OF_PERICENTER":190.0984,"MEAN_ANOMALY":216.5861,"EPHEMERIS_TYPE":0,"CLASSIFICATION_TYPE":"U","NORAD_CAT_ID":62006,"ELEMENT_SET_NO":999,"REV_AT_EPOCH":503,"BSTAR":0,"MEAN_MOTION_DOT":0,"MEAN_MOTION_DDOT":0},{"OBJECT_NAME":"GSAT-N2 (GSAT-20)","OBJECT_ID":"2024-214A","EPOCH":"2026-04-05T18:12:12.308256","MEAN_MOTION":1.00272514,"ECCENTRICITY":9.23e-5,"INCLINATION":0.0036,"RA_OF_ASC_NODE":199.0282,"ARG_OF_PERICENTER":285.0485,"MEAN_ANOMALY":50.9683,"EPHEMERIS_TYPE":0,"CLASSIFICATION_TYPE":"U","NORAD_CAT_ID":62028,"ELEMENT_SET_NO":999,"REV_AT_EPOCH":517,"BSTAR":0,"MEAN_MOTION_DOT":-1.8e-7,"MEAN_MOTION_DDOT":0},{"OBJECT_NAME":"SXM-9","OBJECT_ID":"2024-234A","EPOCH":"2026-04-05T19:10:59.132928","MEAN_MOTION":1.00272208,"ECCENTRICITY":0.0004692,"INCLINATION":0.0167,"RA_OF_ASC_NODE":286.4183,"ARG_OF_PERICENTER":28.127,"MEAN_ANOMALY":82.1385,"EPHEMERIS_TYPE":0,"CLASSIFICATION_TYPE":"U","NORAD_CAT_ID":62259,"ELEMENT_SET_NO":999,"REV_AT_EPOCH":484,"BSTAR":0,"MEAN_MOTION_DOT":-2.03e-6,"MEAN_MOTION_DDOT":0},{"OBJECT_NAME":"TJS-12","OBJECT_ID":"2024-246A","EPOCH":"2026-04-05T18:34:32.666016","MEAN_MOTION":1.00274675,"ECCENTRICITY":0.000237,"INCLINATION":0.8355,"RA_OF_ASC_NODE":293.4923,"ARG_OF_PERICENTER":52.6587,"MEAN_ANOMALY":273.0579,"EPHEMERIS_TYPE":0,"CLASSIFICATION_TYPE":"U","NORAD_CAT_ID":62374,"ELEMENT_SET_NO":999,"REV_AT_EPOCH":483,"BSTAR":0,"MEAN_MOTION_DOT":-2.3e-6,"MEAN_MOTION_DDOT":0},{"OBJECT_NAME":"NUVIEW ALPHA","OBJECT_ID":"2024-252B","EPOCH":"2026-04-05T12:21:04.743936","MEAN_MOTION":1.00272337,"ECCENTRICITY":0.0001761,"INCLINATION":0.0619,"RA_OF_ASC_NODE":32.5874,"ARG_OF_PERICENTER":333.6886,"MEAN_ANOMALY":289.7062,"EPHEMERIS_TYPE":0,"CLASSIFICATION_TYPE":"U","NORAD_CAT_ID":62455,"ELEMENT_SET_NO":999,"REV_AT_EPOCH":309,"BSTAR":0,"MEAN_MOTION_DOT":-2.14e-6,"MEAN_MOTION_DDOT":0},{"OBJECT_NAME":"AGILA","OBJECT_ID":"2024-252C","EPOCH":"2026-04-05T19:59:38.601024","MEAN_MOTION":1.00273425,"ECCENTRICITY":0.0001474,"INCLINATION":0.0309,"RA_OF_ASC_NODE":142.1468,"ARG_OF_PERICENTER":235.2772,"MEAN_ANOMALY":268.7883,"EPHEMERIS_TYPE":0,"CLASSIFICATION_TYPE":"U","NORAD_CAT_ID":62456,"ELEMENT_SET_NO":999,"REV_AT_EPOCH":443,"BSTAR":0,"MEAN_MOTION_DOT":-1.79e-6,"MEAN_MOTION_DDOT":0},{"OBJECT_NAME":"NUVIEW BRAVO","OBJECT_ID":"2024-252D","EPOCH":"2026-04-05T12:21:04.743936","MEAN_MOTION":1.00271663,"ECCENTRICITY":8.43e-5,"INCLINATION":0.0622,"RA_OF_ASC_NODE":167.2955,"ARG_OF_PERICENTER":265.0286,"MEAN_ANOMALY":223.651,"EPHEMERIS_TYPE":0,"CLASSIFICATION_TYPE":"U","NORAD_CAT_ID":62457,"ELEMENT_SET_NO":999,"REV_AT_EPOCH":306,"BSTAR":0,"MEAN_MOTION_DOT":-2.13e-6,"MEAN_MOTION_DDOT":0},{"OBJECT_NAME":"THURAYA-4","OBJECT_ID":"2025-001A","EPOCH":"2026-04-05T14:40:02.528832","MEAN_MOTION":1.00274266,"ECCENTRICITY":4.78e-5,"INCLINATION":0.0338,"RA_OF_ASC_NODE":85.3204,"ARG_OF_PERICENTER":66.2184,"MEAN_ANOMALY":306.6856,"EPHEMERIS_TYPE":0,"CLASSIFICATION_TYPE":"U","NORAD_CAT_ID":62483,"ELEMENT_SET_NO":999,"REV_AT_EPOCH":345,"BSTAR":0,"MEAN_MOTION_DOT":1.41e-6,"MEAN_MOTION_DDOT":0},{"OBJECT_NAME":"TJS-14","OBJECT_ID":"2025-017A","EPOCH":"2026-04-05T19:40:41.284992","MEAN_MOTION":1.00274444,"ECCENTRICITY":0.0001621,"INCLINATION":0.9515,"RA_OF_ASC_NODE":291.4313,"ARG_OF_PERICENTER":77.5879,"MEAN_ANOMALY":138.6087,"EPHEMERIS_TYPE":0,"CLASSIFICATION_TYPE":"U","NORAD_CAT_ID":62804,"ELEMENT_SET_NO":999,"REV_AT_EPOCH":454,"BSTAR":0,"MEAN_MOTION_DOT":1.16e-6,"MEAN_MOTION_DDOT":0},{"OBJECT_NAME":"SPAINSAT NG I","OBJECT_ID":"2025-021A","EPOCH":"2026-04-05T17:51:17.515872","MEAN_MOTION":1.00271721,"ECCENTRICITY":3.88e-5,"INCLINATION":0.0184,"RA_OF_ASC_NODE":229.0779,"ARG_OF_PERICENTER":163.3461,"MEAN_ANOMALY":98.427,"EPHEMERIS_TYPE":0,"CLASSIFICATION_TYPE":"U","NORAD_CAT_ID":62852,"ELEMENT_SET_NO":999,"REV_AT_EPOCH":326,"BSTAR":0,"MEAN_MOTION_DOT":1.53e-6,"MEAN_MOTION_DDOT":0},{"OBJECT_NAME":"QZS-6 (MICHIBIKI-6)","OBJECT_ID":"2025-023A","EPOCH":"2026-04-05T21:12:21.579840","MEAN_MOTION":1.00273812,"ECCENTRICITY":0.0002122,"INCLINATION":0.0323,"RA_OF_ASC_NODE":280.075,"ARG_OF_PERICENTER":108.3412,"MEAN_ANOMALY":214.3787,"EPHEMERIS_TYPE":0,"CLASSIFICATION_TYPE":"U","NORAD_CAT_ID":62876,"ELEMENT_SET_NO":999,"REV_AT_EPOCH":423,"BSTAR":0,"MEAN_MOTION_DOT":-2.32e-6,"MEAN_MOTION_DDOT":0},{"OBJECT_NAME":"ZHONGXING-10R","OBJECT_ID":"2025-036A","EPOCH":"2026-04-05T21:21:47.112768","MEAN_MOTION":1.00273555,"ECCENTRICITY":0.0001317,"INCLINATION":0.0673,"RA_OF_ASC_NODE":255.9184,"ARG_OF_PERICENTER":243.1741,"MEAN_ANOMALY":126.0669,"EPHEMERIS_TYPE":0,"CLASSIFICATION_TYPE":"U","NORAD_CAT_ID":63075,"ELEMENT_SET_NO":999,"REV_AT_EPOCH":423,"BSTAR":0,"MEAN_MOTION_DOT":-3.5e-6,"MEAN_MOTION_DDOT":0},{"OBJECT_NAME":"TJS-15","OBJECT_ID":"2025-045A","EPOCH":"2026-04-05T18:26:54.202560","MEAN_MOTION":1.00269171,"ECCENTRICITY":0.0006621,"INCLINATION":0.2348,"RA_OF_ASC_NODE":84.453,"ARG_OF_PERICENTER":284.7196,"MEAN_ANOMALY":195.9536,"EPHEMERIS_TYPE":0,"CLASSIFICATION_TYPE":"U","NORAD_CAT_ID":63157,"ELEMENT_SET_NO":999,"REV_AT_EPOCH":403,"BSTAR":0,"MEAN_MOTION_DOT":-2.62e-6,"MEAN_MOTION_DDOT":0},{"OBJECT_NAME":"TIANLIAN 2-04","OBJECT_ID":"2025-062A","EPOCH":"2026-04-05T11:24:54.736128","MEAN_MOTION":1.002721,"ECCENTRICITY":0.00335156,"INCLINATION":4.5621,"RA_OF_ASC_NODE":275.4487,"ARG_OF_PERICENTER":11.0245,"MEAN_ANOMALY":158.5587,"EPHEMERIS_TYPE":0,"CLASSIFICATION_TYPE":"U","NORAD_CAT_ID":63361,"ELEMENT_SET_NO":999,"REV_AT_EPOCH":387,"BSTAR":0,"MEAN_MOTION_DOT":-1.38e-6,"MEAN_MOTION_DDOT":0},{"OBJECT_NAME":"TJS-16","OBJECT_ID":"2025-064A","EPOCH":"2026-04-05T16:55:49.633248","MEAN_MOTION":1.00272166,"ECCENTRICITY":0.0004947,"INCLINATION":0.911,"RA_OF_ASC_NODE":81.7243,"ARG_OF_PERICENTER":273.5763,"MEAN_ANOMALY":253.2516,"EPHEMERIS_TYPE":0,"CLASSIFICATION_TYPE":"U","NORAD_CAT_ID":63397,"ELEMENT_SET_NO":999,"REV_AT_EPOCH":366,"BSTAR":0,"MEAN_MOTION_DOT":-1.03e-6,"MEAN_MOTION_DDOT":0},{"OBJECT_NAME":"TJS-17","OBJECT_ID":"2025-073A","EPOCH":"2026-04-05T16:56:57.024384","MEAN_MOTION":1.00271905,"ECCENTRICITY":0.0003978,"INCLINATION":0.8765,"RA_OF_ASC_NODE":83.1831,"ARG_OF_PERICENTER":269.3936,"MEAN_ANOMALY":260.1608,"EPHEMERIS_TYPE":0,"CLASSIFICATION_TYPE":"U","NORAD_CAT_ID":63524,"ELEMENT_SET_NO":999,"REV_AT_EPOCH":356,"BSTAR":0,"MEAN_MOTION_DOT":-6.8e-7,"MEAN_MOTION_DDOT":0}]
