INTELSAT 33E DEB        
1 62003U 16053V   26094.70972617  .00000032  00000+0  00000+0 0  9999
2 62003   1.4355  89.2838 0024315 256.5534 103.9583  1.00411302  5347
OPTUS-X (ADS-01)        
1 62006U 24212A   26095.77598251  .00000000  00000+0  00000+0 0  9999
2 62006   0.0168 223.1252 0001461 190.0984 216.5861  1.00269391  5039
GSAT-N2 (GSAT-20)       
1 62028U 24214A   26095.75847579 -.00000018  00000+0  00000+0 0  9993
2 62028   0.0036 199.0282 0000923 285.0485  50.9683  1.00272514  5172
SXM-9                   
1 62259U 24234A   26095.79929552 -.00000203  00000+0  00000+0 0  9993
2 62259   0.0167 286.4183 0004692  28.1270  82.1385  1.00272208  4848
TJS-12                  
1 62374U 24246A   26095.77398919 -.00000230  00000+0  00000+0 0  9999
2 62374   0.8355 293.4923 0002370  52.6587 273.0579  1.00274675  4832
NUVIEW ALPHA            
1 62455U 24252B   26095.51463824 -.00000214  00000+0  00000+0 0  9998
2 62455   0.0619  32.5874 0001761 333.6886 289.7062  1.00272337  3092
AGILA                   
1 62456U 24252C   26095.83308566 -.00000179  00000+0  00000+0 0  9995
2 62456   0.0309 142.1468 0001474 235.2772 268.7883  1.00273425  4434
NUVIEW BRAVO            
1 62457U 24252D   26095.51463824 -.00000213  00000+0  00000+0 0  9999
2 62457   0.0622 167.2955 0000843 265.0286 223.6510  1.00271663  3069
THURAYA-4               
1 62483U 25001A   26095.61114038  .00000141  00000+0  00000+0 0  9991
2 62483   0.0338  85.3204 0000478  66.2184 306.6856  1.00274266  3451
TJS-14                  
1 62804U 25017A   26095.81992228  .00000116  00000+0  00000+0 0  9994
2 62804   0.9515 291.4313 0001621  77.5879 138.6087  1.00274444  4540
SPAINSAT NG I           
1 62852U 25021A   26095.74395273  .00000153  00000+0  00000+0 0  9992
2 62852   0.0184 229.0779 0000388 163.3461  98.4270  1.00271721  3269
QZS-6 (MICHIBIKI-6)     
1 62876U 25023A   26095.88358310 -.00000232  00000+0  00000+0 0  9995
2 62876   0.0323 280.0750 0002122 108.3412 214.3787  1.00273812  4232
ZHONGXING-10R           
1 63075U 25036A   26095.89012862 -.00000350  00000+0  00000+0 0  9992
2 63075   0.0673 255.9184 0001317 243.1741 126.0669  1.00273555  4234
TJS-15                  
1 63157U 25045A   26095.76868290 -.00000262  00000+0  00000+0 0  9995
2 63157   0.2348  84.4530 0006621 284.7196 195.9536  1.00269171  4039
TIANLIAN 2-04           
1 63361U 25062A   26095.47563352 -.00000138  00000+0  00000+0 0  9992
2 63361   4.5621 275.4487 0033515  11.0245 158.5587  1.00272100  3876
TJS-16                  
1 63397U 25064A   26095.70543557 -.00000103  00000+0  00000+0 0  9996
2 63397   0.9110  81.7243 0004947 273.5763 253.2516  1.00272166  3667
TJS-17                  
1 63524U 25073A   26095.70621556 -.00000068  00000+0  00000+0 0  9994
2 63524   0.8765  83.1831 0003978 269.3936 260.1608  1.00271905  3569
